{
  "links" : {
    "next" : "https://api.nasa.gov/neo/rest/v1/feed?start_date=1996-10-09&end_date=1996-10-09&detailed=true&api_key=t0TVs3DtDT2H8Oy2Zy8m2eVrNsAVKAexjcZXUckd",
    "prev" : "https://api.nasa.gov/neo/rest/v1/feed?start_date=1996-10-07&end_date=1996-10-07&detailed=true&api_key=t0TVs3DtDT2H8Oy2Zy8m2eVrNsAVKAexjcZXUckd",
    "self" : "https://api.nasa.gov/neo/rest/v1/feed?start_date=1996-10-08&end_date=1996-10-08&detailed=true&api_key=t0TVs3DtDT2H8Oy2Zy8m2eVrNsAVKAexjcZXUckd"
  },
  "element_count" : 5,
  "near_earth_objects" : {
    "1996-10-08" : [ {
      "links" : {
        "self" : "https://api.nasa.gov/neo/rest/v1/neo/3666628?api_key=t0TVs3DtDT2H8Oy2Zy8m2eVrNsAVKAexjcZXUckd"
      },
      "neo_reference_id" : "3666628",
      "name" : "(2014 FL33)",
      "nasa_jpl_url" : "http://ssd.jpl.nasa.gov/sbdb.cgi?sstr=3666628",
      "absolute_magnitude_h" : 20.2,
      "estimated_diameter" : {
        "kilometers" : {
          "estimated_diameter_min" : 0.2424124811,
          "estimated_diameter_max" : 0.5420507863
        },
        "meters" : {
          "estimated_diameter_min" : 242.4124811008,
          "estimated_diameter_max" : 542.0507863358
        },
        "miles" : {
          "estimated_diameter_min" : 0.1506280858,
          "estimated_diameter_max" : 0.3368146392
        },
        "feet" : {
          "estimated_diameter_min" : 795.3165644948,
          "estimated_diameter_max" : 1778.3819018419
        }
      },
      "is_potentially_hazardous_asteroid" : false,
      "close_approach_data" : [ {
        "close_approach_date" : "1996-10-08",
        "epoch_date_close_approach" : 844758000000,
        "relative_velocity" : {
          "kilometers_per_second" : "24.7830838826",
          "kilometers_per_hour" : "89219.1019775047",
          "miles_per_hour" : "55437.2803370779"
        },
        "miss_distance" : {
          "astronomical" : "0.3870334914",
          "lunar" : "150.5560302734",
          "kilometers" : "57899388",
          "miles" : "35977012"
        },
        "orbiting_body" : "Earth"
      } ],
      "orbital_data" : {
        "orbit_id" : "25",
        "orbit_determination_date" : "2017-04-06 08:41:56",
        "orbit_uncertainty" : "4",
        "minimum_orbit_intersection" : ".150177",
        "jupiter_tisserand_invariant" : "3.754",
        "epoch_osculation" : "2458000.5",
        "eccentricity" : ".5669995233274169",
        "semi_major_axis" : "1.865851037202332",
        "inclination" : "11.92332145778663",
        "ascending_node_longitude" : "125.5828604934636",
        "orbital_period" : "930.9232548816497",
        "perihelion_distance" : ".8079143885086434",
        "perihelion_argument" : "169.5511301175526",
        "aphelion_distance" : "2.923787685896021",
        "perihelion_time" : "2457774.409965307879",
        "mean_anomaly" : "87.43192530893549",
        "mean_motion" : ".3867128660845062",
        "equinox" : "J2000"
      }
    }, {
      "links" : {
        "self" : "https://api.nasa.gov/neo/rest/v1/neo/3710020?api_key=t0TVs3DtDT2H8Oy2Zy8m2eVrNsAVKAexjcZXUckd"
      },
      "neo_reference_id" : "3710020",
      "name" : "(2015 CQ12)",
      "nasa_jpl_url" : "http://ssd.jpl.nasa.gov/sbdb.cgi?sstr=3710020",
      "absolute_magnitude_h" : 22.6,
      "estimated_diameter" : {
        "kilometers" : {
          "estimated_diameter_min" : 0.0802703167,
          "estimated_diameter_max" : 0.1794898848
        },
        "meters" : {
          "estimated_diameter_min" : 80.2703167283,
          "estimated_diameter_max" : 179.4898847799
        },
        "miles" : {
          "estimated_diameter_min" : 0.049877647,
          "estimated_diameter_max" : 0.1115298092
        },
        "feet" : {
          "estimated_diameter_min" : 263.3540659348,
          "estimated_diameter_max" : 588.8775935812
        }
      },
      "is_potentially_hazardous_asteroid" : false,
      "close_approach_data" : [ {
        "close_approach_date" : "1996-10-08",
        "epoch_date_close_approach" : 844758000000,
        "relative_velocity" : {
          "kilometers_per_second" : "13.7425234948",
          "kilometers_per_hour" : "49473.0845812321",
          "miles_per_hour" : "30740.6508054884"
        },
        "miss_distance" : {
          "astronomical" : "0.3625540733",
          "lunar" : "141.0335388184",
          "kilometers" : "54237316",
          "miles" : "33701508"
        },
        "orbiting_body" : "Earth"
      } ],
      "orbital_data" : {
        "orbit_id" : "13",
        "orbit_determination_date" : "2017-04-06 08:35:45",
        "orbit_uncertainty" : "2",
        "minimum_orbit_intersection" : ".0658399",
        "jupiter_tisserand_invariant" : "5.819",
        "epoch_osculation" : "2458000.5",
        "eccentricity" : ".3844626785895445",
        "semi_major_axis" : "1.040634486818409",
        "inclination" : "7.552076460261987",
        "ascending_node_longitude" : "134.0853233907836",
        "orbital_period" : "387.7445912722043",
        "perihelion_distance" : ".6405493645835477",
        "perihelion_argument" : "223.7706630428485",
        "aphelion_distance" : "1.440719609053271",
        "perihelion_time" : "2458108.588046159068",
        "mean_anomaly" : "259.6460621421086",
        "mean_motion" : ".928446219762413",
        "equinox" : "J2000"
      }
    }, {
      "links" : {
        "self" : "https://api.nasa.gov/neo/rest/v1/neo/3719227?api_key=t0TVs3DtDT2H8Oy2Zy8m2eVrNsAVKAexjcZXUckd"
      },
      "neo_reference_id" : "3719227",
      "name" : "(2015 KA)",
      "nasa_jpl_url" : "http://ssd.jpl.nasa.gov/sbdb.cgi?sstr=3719227",
      "absolute_magnitude_h" : 26.2,
      "estimated_diameter" : {
        "kilometers" : {
          "estimated_diameter_min" : 0.0152951935,
          "estimated_diameter_max" : 0.0342010925
        },
        "meters" : {
          "estimated_diameter_min" : 15.2951935344,
          "estimated_diameter_max" : 34.201092472
        },
        "miles" : {
          "estimated_diameter_min" : 0.0095039897,
          "estimated_diameter_max" : 0.021251567
        },
        "feet" : {
          "estimated_diameter_min" : 50.1810827555,
          "estimated_diameter_max" : 112.2083122258
        }
      },
      "is_potentially_hazardous_asteroid" : false,
      "close_approach_data" : [ {
        "close_approach_date" : "1996-10-08",
        "epoch_date_close_approach" : 844758000000,
        "relative_velocity" : {
          "kilometers_per_second" : "8.1019731991",
          "kilometers_per_hour" : "29167.103516679",
          "miles_per_hour" : "18123.3038490164"
        },
        "miss_distance" : {
          "astronomical" : "0.1611431102",
          "lunar" : "62.6846694946",
          "kilometers" : "24106666",
          "miles" : "14979188"
        },
        "orbiting_body" : "Earth"
      } ],
      "orbital_data" : {
        "orbit_id" : "13",
        "orbit_determination_date" : "2017-04-06 08:33:44",
        "orbit_uncertainty" : "4",
        "minimum_orbit_intersection" : ".0163424",
        "jupiter_tisserand_invariant" : "6.213",
        "epoch_osculation" : "2458000.5",
        "eccentricity" : ".1228259560074111",
        "semi_major_axis" : ".9693437083297723",
        "inclination" : "9.504144316652349",
        "ascending_node_longitude" : "237.1186610361183",
        "orbital_period" : "348.5901574934982",
        "perihelion_distance" : ".850283140654399",
        "perihelion_argument" : "233.7026099162035",
        "aphelion_distance" : "1.088404276005146",
        "perihelion_time" : "2458096.980544107537",
        "mean_anomaly" : "260.3615129914813",
        "mean_motion" : "1.032731396057029",
        "equinox" : "J2000"
      }
    } ]
  }
}